{
  "type": "FeatureCollection",
  "features": [
    {
      "type": "Feature",
      "properties": {
        "norad_id": 66662,
        "name": "2025-274N",
        "group": "last-30-days",
        "lat": 66.48621399549427,
        "lon": -110.10848169974838,
        "alt_km": 587.1901442358239,
        "timestamp": "2025-12-06T18:50:08.957090+00:00",
        "meta_object_name": "2025-274N",
        "meta_object_id": "2025-274N",
        "meta_epoch": "2025-12-05T18:24:28.056960",
        "meta_mean_motion": 14.93097747,
        "meta_eccentricity": 0.0014044,
        "meta_inclination": 97.739,
        "meta_ra_of_asc_node": 267.1034,
        "meta_arg_of_pericenter": 307.6124,
        "meta_mean_anomaly": 52.382,
        "meta_ephemeris_type": 0,
        "meta_classification_type": "U",
        "meta_norad_cat_id": 66662,
        "meta_element_set_no": 999,
        "meta_rev_at_epoch": 136,
        "meta_bstar": 0.00032328151,
        "meta_mean_motion_dot": 3.318e-05,
        "meta_mean_motion_ddot": 0,
        "tle_line1": "1 66662U 25274N   25339.76699140  .00003318  00000+0  32328-3 0  9995",
        "tle_line2": "2 66662  97.7390 267.1034 0014044 307.6124  52.3820 14.93097747  1363"
      },
      "geometry": {
        "type": "Point",
        "coordinates": [
          -110.10848169974838,
          66.48621399549427
        ]
      }
    },
    {
      "type": "Feature",
      "properties": {
        "norad_id": 66663,
        "name": "KSLV-II R/B",
        "group": "last-30-days",
        "lat": -40.937274452074725,
        "lon": 81.40743062300322,
        "alt_km": 597.4430286135275,
        "timestamp": "2025-12-06T18:50:08.957100+00:00",
        "meta_object_name": "KSLV-II R/B",
        "meta_object_id": "2025-274P",
        "meta_epoch": "2025-12-05T12:58:33.614976",
        "meta_mean_motion": 14.97210966,
        "meta_eccentricity": 0.00473649,
        "meta_inclination": 97.7405,
        "meta_ra_of_asc_node": 266.9508,
        "meta_arg_of_pericenter": 343.4564,
        "meta_mean_anomaly": 16.5109,
        "meta_ephemeris_type": 0,
        "meta_classification_type": "U",
        "meta_norad_cat_id": 66663,
        "meta_element_set_no": 999,
        "meta_rev_at_epoch": 133,
        "meta_bstar": 0.0001343158,
        "meta_mean_motion_dot": 1.527e-05,
        "meta_mean_motion_ddot": 0,
        "tle_line1": "1 66663U 25274P   25339.54066684  .00001527  00000+0  13432-3 0  9998",
        "tle_line2": "2 66663  97.7405 266.9508 0047364 343.4564  16.5109 14.97210966  1334"
      },
      "geometry": {
        "type": "Point",
        "coordinates": [
          81.40743062300322,
          -40.937274452074725
        ]
      }
    },
    {
      "type": "Feature",
      "properties": {
        "norad_id": 66664,
        "name": "SOYUZ-MS 28",
        "group": "last-30-days",
        "lat": -51.60913561975799,
        "lon": 82.31414171572064,
        "alt_km": 421.8436687361436,
        "timestamp": "2025-12-06T18:50:08.957110+00:00",
        "meta_object_name": "SOYUZ-MS 28",
        "meta_object_id": "2025-275A",
        "meta_epoch": "2025-12-06T00:38:46.837536",
        "meta_mean_motion": 15.49350538,
        "meta_eccentricity": 0.00036145,
        "meta_inclination": 51.6296,
        "meta_ra_of_asc_node": 175.7148,
        "meta_arg_of_pericenter": 210.2448,
        "meta_mean_anomaly": 149.8333,
        "meta_ephemeris_type": 0,
        "meta_classification_type": "U",
        "meta_norad_cat_id": 66664,
        "meta_element_set_no": 999,
        "meta_rev_at_epoch": 128,
        "meta_bstar": 0.00025885847,
        "meta_mean_motion_dot": 0.00014013,
        "meta_mean_motion_ddot": 0,
        "tle_line1": "1 66664U 25275A   25340.02693099  .00014013  00000+0  25886-3 0  9991",
        "tle_line2": "2 66664  51.6296 175.7148 0003614 210.2448 149.8333 15.49350538  1282"
      },
      "geometry": {
        "type": "Point",
        "coordinates": [
          82.31414171572064,
          -51.60913561975799
        ]
      }
    },
    {
      "type": "Feature",
      "properties": {
        "norad_id": 66820,
        "name": "KOMPSAT-7",
        "group": "last-30-days",
        "lat": -77.6748714810814,
        "lon": -35.32920646721455,
        "alt_km": 573.9991333022417,
        "timestamp": "2025-12-06T18:50:08.957122+00:00",
        "meta_object_name": "KOMPSAT-7",
        "meta_object_id": "2025-279A",
        "meta_epoch": "2025-12-06T04:46:07.702464",
        "meta_mean_motion": 14.98349752,
        "meta_eccentricity": 0.0009519,
        "meta_inclination": 97.639,
        "meta_ra_of_asc_node": 286.1986,
        "meta_arg_of_pericenter": 245.2445,
        "meta_mean_anomaly": 114.7788,
        "meta_ephemeris_type": 0,
        "meta_classification_type": "U",
        "meta_norad_cat_id": 66820,
        "meta_element_set_no": 999,
        "meta_rev_at_epoch": 67,
        "meta_bstar": 0.00040034393,
        "meta_mean_motion_dot": 4.717e-05,
        "meta_mean_motion_ddot": 0,
        "tle_line1": "1 66820U 25279A   25340.19870026  .00004717  00000+0  40034-3 0  9996",
        "tle_line2": "2 66820  97.6390 286.1986 0009519 245.2445 114.7788 14.98349752   679"
      },
      "geometry": {
        "type": "Point",
        "coordinates": [
          -35.32920646721455,
          -77.6748714810814
        ]
      }
    },
    {
      "type": "Feature",
      "properties": {
        "norad_id": 66877,
        "name": "ZQ-3 R/B",
        "group": "last-30-days",
        "lat": 29.14526402185256,
        "lon": -121.06848095480318,
        "alt_km": 450.4789026644312,
        "timestamp": "2025-12-06T18:50:08.957132+00:00",
        "meta_object_name": "ZQ-3 R/B",
        "meta_object_id": "2025-282A",
        "meta_epoch": "2025-12-05T23:49:24.734496",
        "meta_mean_motion": 14.42429194,
        "meta_eccentricity": 0.08501018,
        "meta_inclination": 56.9549,
        "meta_ra_of_asc_node": 83.1784,
        "meta_arg_of_pericenter": 208.4251,
        "meta_mean_anomaly": 146.7798,
        "meta_ephemeris_type": 0,
        "meta_classification_type": "U",
        "meta_norad_cat_id": 66877,
        "meta_element_set_no": 999,
        "meta_rev_at_epoch": 41,
        "meta_bstar": 0.00027571343,
        "meta_mean_motion_dot": 0.01246047,
        "meta_mean_motion_ddot": 7.209486e-06,
        "tle_line1": "1 66877U 25282A   25339.99264739  .01246047  72095-5  27571-3 0  9991",
        "tle_line2": "2 66877  56.9549  83.1784 0850101 208.4251 146.7798 14.42429194   419"
      },
      "geometry": {
        "type": "Point",
        "coordinates": [
          -121.06848095480318,
          29.14526402185256
        ]
      }
    },
    {
      "type": "Feature",
      "properties": {
        "norad_id": 66906,
        "name": "1998-067XS",
        "group": "last-30-days",
        "lat": -50.35402254480573,
        "lon": 98.96255910838342,
        "alt_km": 421.58894960555153,
        "timestamp": "2025-12-06T18:50:08.957145+00:00",
        "meta_object_name": "1998-067XS",
        "meta_object_id": "1998-067XS",
        "meta_epoch": "2025-12-06T00:36:35.431776",
        "meta_mean_motion": 15.50078443,
        "meta_eccentricity": 0.00042467,
        "meta_inclination": 51.6295,
        "meta_ra_of_asc_node": 175.7046,
        "meta_arg_of_pericenter": 174.3007,
        "meta_mean_anomaly": 185.803,
        "meta_ephemeris_type": 0,
        "meta_classification_type": "U",
        "meta_norad_cat_id": 66906,
        "meta_element_set_no": 999,
        "meta_rev_at_epoch": 57,
        "meta_bstar": 0.00063992594,
        "meta_mean_motion_dot": 0.00036342,
        "meta_mean_motion_ddot": 0,
        "tle_line1": "1 66906U 98067XS  25340.02541009  .00036342  00000+0  63993-3 0  9992",
        "tle_line2": "2 66906  51.6295 175.7046 0004246 174.3007 185.8030 15.50078443   579"
      },
      "geometry": {
        "type": "Point",
        "coordinates": [
          98.96255910838342,
          -50.35402254480573
        ]
      }
    },
    {
      "type": "Feature",
      "properties": {
        "norad_id": 66907,
        "name": "1998-067XT",
        "group": "last-30-days",
        "lat": -49.72441635051754,
        "lon": 102.69200401632435,
        "alt_km": 419.88960430154293,
        "timestamp": "2025-12-06T18:50:08.957155+00:00",
        "meta_object_name": "1998-067XT",
        "meta_object_id": "1998-067XT",
        "meta_epoch": "2025-12-05T23:03:20.722464",
        "meta_mean_motion": 15.50347782,
        "meta_eccentricity": 0.00053008,
        "meta_inclination": 51.6292,
        "meta_ra_of_asc_node": 176.0227,
        "meta_arg_of_pericenter": 190.4344,
        "meta_mean_anomaly": 169.6536,
        "meta_ephemeris_type": 0,
        "meta_classification_type": "U",
        "meta_norad_cat_id": 66907,
        "meta_element_set_no": 999,
        "meta_rev_at_epoch": 56,
        "meta_bstar": 0.0012672984,
        "meta_mean_motion_dot": 0.00073478,
        "meta_mean_motion_ddot": 0,
        "tle_line1": "1 66907U 98067XT  25339.96065651  .00073478  00000+0  12673-2 0  9997",
        "tle_line2": "2 66907  51.6292 176.0227 0005300 190.4344 169.6536 15.50347782   562"
      },
      "geometry": {
        "type": "Point",
        "coordinates": [
          102.69200401632435,
          -49.72441635051754
        ]
      }
    }
  ]
}